    CK18D04O  2019 08 18.3355  2.406955  0.906526  175.9940  251.1425  160.4741  20201215  11.0  4.0  C/2018 DO4 (Lemmon)                                      MPEC 2020-AA5
    CK18E010  2018 04 17.2977  2.702442  0.949923  299.4042  146.8617   72.5127  20201215  10.5  4.0  C/2018 E1 (ATLAS)                                        MPC114602
    CK18E020  2017 12 23.9991  3.920246  0.999012  277.4703   67.1964   97.7127  20201215  10.5  4.0  C/2018 E2 (Barros)                                       MPC114602
    CK18E04N  2018 06  7.0155  1.450146  0.920444   35.0073  136.1444   81.6372  20201215  15.0  4.0  C/2018 EN4 (NEOWISE)                                     MPC114602
    CK18E09F  2018 05 22.8433  1.557557  0.997209   72.6201  172.5676   84.6438  20201215  18.0  2.0  C/2018 EF9 (Lemmon)                                      MPC114602
    CK18F010  2018 12 13.8209  2.994113  0.989569   71.6354  177.2759   46.0769  20201215  11.5  4.0  C/2018 F1 (Grauer)                                       MPC115883
    CK18F030  2017 08 15.2313  2.483172  1.000000  293.0113  173.0311  105.5348            13.0  4.0  C/2018 F3 (Johnson)                                      MPC110084
    CK18F040  2019 12  4.1450  3.440216  1.001356  263.2276   26.5127   78.0945  20201215  11.9  2.0  C/2018 F4 (PANSTARRS)                                    MPC119996
    PK18H020  2018 01 22.6266  2.021157  0.539987  119.9825   68.4085    7.3881  20201215  16.6  2.0  P/2018 H2 (PANSTARRS)                                    MPC114602
    CK18K010  2018 04  6.7824  1.881625  0.937170  325.0665  260.0367  164.1959  20201215  14.9  4.0  C/2018 K1 (Weiland)                                      MPC114602
    CK18K03J  2019 09  9.6692  3.629263  0.995545  217.6588   91.5994  136.7087  20201215  12.2  2.0  C/2018 KJ3 (Lemmon)                                      MPC118094
    PK18L010  2018 11 12.6180  1.887677  0.482903   17.9764  268.6305   10.5930  20201215  15.0  4.0  P/2018 L1 (PANSTARRS)                                    MPC114602
    CK18L020  2018 12  2.6772  1.712660  0.993377   56.2704  243.0238   67.3924  20201215  10.0  4.0  C/2018 L2 (ATLAS)                                        MPC118841
    PK18L040  2018 07 31.8868  1.678685  0.660198  140.5534  145.1583   26.6244  20201215  17.5  4.0  P/2018 L4 (PANSTARRS)                                    MPC114603
    PK18L050  2018 05  5.0553  2.304363  0.364783   93.7915  219.1308    2.2083  20201215  14.5  4.0  P/2018 L5 (Leonard)                                      MPC119996
    CK18M010  2018 07 10.2644  1.302515  0.938984   14.1603  339.4189   37.2884  20201215  15.5  4.0  C/2018 M1 (Catalina)                                     MPC117070
    CK18N010  2018 08  1.9301  1.309628  0.996230  354.6176  292.4445  159.4446  20201215  15.5  4.0  C/2018 N1 (NEOWISE)                                      MPC112393
    CK18N020  2019 11 10.9699  3.124765  1.000111   24.4026   25.2473   77.5282  20201215   6.0  4.0  C/2018 N2 (ASASSN)                                       MPC119996
    CK18O010  2018 08 31.5698  1.560208  0.944057  162.5729   87.6417  154.0398  20201215  17.0  4.0  C/2018 O1 (ATLAS)                                        MPC114603
    PK18P030  2018 10  9.7228  1.754464  0.416415  305.8715   59.1869    8.9088  20201215  14.5  4.0  P/2018 P3 (PANSTARRS)                                    MPC114603
    PK18P040  2018 11  7.8753  3.666621  0.450359    8.2080  353.0780   23.1069  20201215  12.0  4.0  P/2018 P4 (PANSTARRS)                                    MPC114603
    CK18P050  2019 02 26.9532  4.577213  0.642245  131.7155  216.2426    7.2533  20201215  11.0  4.0  C/2018 P5 (PANSTARRS)                                    MPC118094
    CK18R030  2019 06  7.2185  1.289564  0.999239  112.8396  324.6368   69.7271  20201215   9.5  4.0  C/2018 R3 (Lemmon)                                       MPC118841
    CK18R040  2018 03  3.6554  1.713340  0.994783  345.2710  298.4362   11.6836  20201215  14.0  4.0  C/2018 R4 (Fuls)                                         MPC112393
    CK18R050  2019 01 10.0017  3.622838  0.840995  178.0452  171.1309  103.7482  20201215  11.5  4.0  C/2018 R5 (Lemmon)                                       MPC114603
    CK18U010  2021 11  2.8126  4.993367  1.001098  180.4300   75.4792  108.2992  20201215   5.0  4.0  C/2018 U1 (Lemmon)                                       MPC119996
    CK18V010  2018 12  3.3383  0.386027  1.000360   88.8377  128.8783  144.0536  20201215  12.0  4.0  C/2018 V1 (Machholz-Fujikawa-Iwamoto)                    MPC114604
    CK18V020  2018 11 26.4739  2.478268  0.901712  318.9574  357.0655  159.1656  20201215  15.0  4.0  C/2018 V2 (ATLAS)                                        MPC115884
    PK18V02N  2018 06  5.6100  2.120130  0.478413  138.7361  226.5182   18.2483  20201215  15.0  4.0  P/2018 VN2 (Leonard)                                     MPC114604
    AK18V030  2019 09  8.6777  1.340077  0.988963    3.5131  308.6564  164.9780  20201215  15.7  2.0  A/2018 V3                                                MPC117070
    CK18V040  2019 03  1.4432  3.197537  0.984542  359.9499   78.3687   69.0030  20201215  12.5  4.0  C/2018 V4 (Africano)                                     MPC114604
    PK18V050  2018 10  2.8623  4.704847  0.474579  260.7061  171.2908   10.5846  20201215  12.5  4.0  P/2018 V5 (Trujillo-Sheppard)                            MPC114604
    CK18W010  2019 05 11.7496  1.360608  0.937370  251.2508  233.5925   83.2621  20201215  15.7  2.0  C/2018 W1 (Catalina)                                     MPC115884
    CK18W020  2019 09  5.6676  1.454947  1.000465  157.9749  181.8526  116.6170  20201215   9.5  4.0  C/2018 W2 (Africano)                                     MPC119996
    CK18X020  2019 07  8.4575  2.126511  0.985670  162.0603  340.8269   23.0694  20201215  12.0  4.0  C/2018 X2 (Fitzsimmons)                                  MPC119996
    CK18X030  2018 12 30.5768  2.696818  0.782177  359.7637   78.9105   43.3704  20201215  14.5  4.0  C/2018 X3 (PANSTARRS)                                    MPC114604
    CK18Y010  2019 02  7.0191  1.285366  0.990924  358.0285  147.5098  160.4001  20201215  11.5  4.0  C/2018 Y1 (Iwamoto)                                      MPC118842
    PK18Y020  2019 01  1.8158  3.891065  0.478645  162.3718  297.2665   11.6827  20201215  11.5  4.0  P/2018 Y2 (Africano)                                     MPC114605
    PK19A010  2018 10 10.7281  2.211570  0.568356  150.7988  312.3028   13.7442  20201215  16.0  4.0  P/2019 A1 (PANSTARRS)                                    MPC114605
    PK19A020  2018 11 20.6428  3.540907  0.381357  324.0828  139.4680   14.8605  20201215  10.5  4.0  P/2019 A2 (ATLAS)                                        MPC114605
    PK19A030  2018 08  2.1570  2.311524  0.265484  325.4880   31.3043   15.3665  20201215  16.0  4.0  P/2019 A3 (PANSTARRS)                                    MPC114605
    PK19A040  2018 12  4.4762  2.382300  0.088730  341.7750  119.2991   13.3209  20201215  15.0  4.0  P/2019 A4 (PANSTARRS)                                    MPC114605
    CK19A050  2019 06  8.7339  6.323100  0.707178  355.9828  146.6255   67.5568  20201215   9.5  4.0  C/2019 A5 (PANSTARRS)                                    MPC118842
    PK19A060  2018 08 29.1317  1.936514  0.638948  156.2195  280.2695   33.2302  20201215  16.0  4.0  P/2019 A6 (Lemmon-PANSTARRS)                             MPC114605
    PK19A070  2023 09 15.0642  2.672556  0.161091  119.2733  280.5229   17.7745  20201215  13.5  4.0  P/2019 A7 (PANSTARRS)                                    MPC114605
    PK19A080  2018 09 17.3314  1.836096  0.453177   22.3462  127.5517    3.0817  20201215  16.0  4.0  P/2019 A8 (PANSTARRS)                                    MPC115884
    CK19A090  2019 07 26.5618  1.430597  0.964116  237.9623  278.3854   84.2045  20201215  15.0  4.0  C/2019 A9 (PANSTARRS)                                    MPC118842
    CK19B010  2019 03 19.7855  1.596684  0.989120  174.8482  290.4353  123.3637  20201215  16.0  4.0  C/2019 B1 (Africano)                                     MPC114606
    PK19B020  2019 06  9.0655  2.420718  0.373268  359.1839  176.3157   16.8345  20201215  14.5  4.0  P/2019 B2 (Groeller)                                     MPC115885
    CK19B030  2021 01 19.9395  6.823635  1.002528  263.9005  358.4287   66.5386  20201215   5.5  4.0  C/2019 B3 (PANSTARRS)                                    MPC115885
    CK19C010  2020 05  5.6512  6.581138  0.991377  319.1916  212.3894   36.0236  20201215  10.0  4.0  C/2019 C1                                                MPEC 2020-AA5
    CK19D010  2019 05 11.8769  1.578642  0.988818   70.5182  231.7176   34.0833  20201215  13.0  4.0  C/2019 D1 (Flewelling)                                   MPC118842
    CK19E030  2023 11 12.4493 10.315059  1.004087  280.6081  347.2396   84.2909  20201215   2.5  4.0  C/2019 E3 (ATLAS)                                        MPC119997
    CK19F010  2021 06 22.7772  3.595696  1.003632  251.1171   38.7261   54.1756  20201215   5.5  4.0  C/2019 F1 (ATLAS-Africano)                               MPC119997
    CK19F020  2019 09  9.1814  2.236437  0.866216   11.2361  175.7246   19.1961  20201215  12.0  4.0  C/2019 F2 (ATLAS)                                        MPC119997
    AK19G020  2019 12 10.0064  2.290955  0.996616   82.6382  208.1509  159.2082  20201215  16.5  2.0  A/2019 G2                                                MPEC 2020-AA5
    AK19G040  2018 09 16.0009  5.858480  1.001434  287.8839  130.4642  138.3863  20201215  13.0  2.0  A/2019 G4                                                MPC118094
    PK19G21G  2019 05 10.7774  3.937965  0.473003  208.4859  340.5804    6.0838  20201215  12.0  4.0  P/2019 GG21 (PANSTARRS)                                  MPC114607
    CK19H010  2019 04 27.7910  1.845764  0.992114   19.3176  269.1938  104.5726  20201215  15.5  4.0  C/2019 H1 (NEOWISE)                                      MPC115885
